satname,norad_id,inclination_deg,eccentricity,mean_motion_rev_per_day,perigee_km,apogee_km,l1,l2
STARLINK-1234,45190,53.0336,0.0004144,15.87066668,307.7400419077494,313.28359404809,1 45190U 20012N   26201.83485826  .00122315  00000+0  45769-3 0  9996,2 45190  53.0336  24.0297 0004144 288.1792  71.8780 15.87066668356834
STARLINK-1269,45197,53.1532,0.0003377,15.38312658,448.7924190665526,453.40488482587716,1 45197U 20012V   26201.25807608  .00029220  00000+0  76970-3 0  9994,2 45197  53.1532 140.8097 0003377  61.8530 298.2816 15.38312658355257
STARLINK-1154,45198,53.0401,0.0003943,15.67071289,364.62860366127916,369.94804607246897,1 45198U 20012W   26201.94331607  .00035632  00000+0  33140-3 0  9998,2 45198  53.0401  83.0028 0003943 109.1689 250.9753 15.67071289356063
STARLINK-1199,45201,53.1544,0.0005665,15.38356506,447.10019304754223,454.8375700113147,1 45201U 20012Z   26201.94434956  .00031265  00000+0  82124-3 0  9998,2 45201  53.1544 121.8562 0005665  64.6343 295.5248 15.38356506355605
STARLINK-1209,45206,53.0349,0.0001676,15.75365177,342.46566675675604,344.7187903941749,1 45206U 20012AE  26201.80907111  .00052793  00000+0  34446-3 0  9999,2 45206  53.0349  42.0081 0001676 263.0229  97.0599 15.75365177355731
STARLINK-1231,45212,53.0359,0.0002843,15.30402643,472.66184471751785,476.5583167076111,1 45212U 20012AL  26201.94585825  .00020403  00000+0  69468-3 0  9990,2 45212  53.0359 118.9101 0002843 119.6382 240.4901 15.30402643355572
STARLINK-1271,45217,53.1544,0.0005133,15.38531024,446.9473326368552,453.9575625637617,1 45217U 20012AR  26201.93667668  .00028540  00000+0  74665-3 0  9995,2 45217  53.1544 121.9579 0005133  67.0719 293.0827 15.38531024355601
STARLINK-1191,45222,53.1523,0.0002579,15.43069537,435.2986300365401,438.813906724371,1 45222U 20012AW  26201.92805985  .00019012  00000+0  43194-3 0  9993,2 45222  53.1523  93.6897 0002579  79.0011 281.1285 15.43069537356003
STARLINK-1212,45223,53.0387,0.0001289,15.74012601,346.5754815058299,348.3093358773913,1 45223U 20012AX  26201.89765034  .00057183  00000+0  39502-3 0  9999,2 45223  53.0387  57.2732 0001289 230.8860 129.2044 15.74012601356482
STARLINK-1215,45225,53.1533,0.0005035,15.3864162,446.6871922594137,453.56325231725805,1 45225U 20012AZ  26201.93236736  .00033669  00000+0  87524-3 0  9998,2 45225  53.1533  96.2038 0005035  73.4660 286.6897 15.38641620355923
STARLINK-1221,45227,53.065,0.0002874,15.46668628,424.52390070426645,428.4351942957692,1 45227U 20012BB  26201.46126039  .00010776  00000+0  22068-3 0  9998,2 45227  53.0650 358.2737 0002874  75.1132 285.0193 15.46668628357225
STARLINK-1222,45228,53.0515,8.65e-05,15.5997157,387.15403521962253,388.3245318166719,1 45228U 20012BC  26202.00002315  .00096545  00000+0  11663-2 0  9996,2 45228  53.0515  59.5721 0000865  67.0066 131.1104 15.59971570  5909
STARLINK-1226,45229,53.1528,0.000462,15.48566339,417.77804288009975,424.06037081522663,1 45229U 20012BD  26201.89387305  .00041695  00000+0  77333-3 0  9991,2 45229  53.1528  89.5398 0004620  72.0088 288.1424 15.48566339355953
STARLINK-1227,45230,53.1505,0.0004304,15.48621411,417.83176967205236,423.68425850017775,1 45230U 20012BE  26201.90121392  .00040561  00000+0  75122-3 0  9992,2 45230  53.1505  89.5761 0004304  67.9855 292.1610 15.48621411356077
STARLINK-1246,45235,53.1528,0.0005067,15.38594126,446.8057884307782,453.725691767595,1 45235U 20012BK  26201.52056735  .00028359  00000+0  74048-3 0  9990,2 45235  53.1528 139.1586 0005067  30.1018 330.0277 15.38594126355356
STARLINK-1270,45237,53.0382,0.0001001,15.72966109,349.75156090708697,351.0986190375006,1 45237U 20012BM  26201.90110655  .00052733  00000+0  38150-3 0  9993,2 45237  53.0382  59.2494 0001001 223.4930 136.6009 15.72966109356456
STARLINK-1279,45360,53.03,0.0003362,15.88589261,303.9899976857205,308.48457095449794,1 45360U 20019A   26201.90244971  .00135896  00000+0  47070-3 0  9999,2 45360  53.0300 158.0397 0003362  68.6787 291.4596 15.88589261351626
STARLINK-1301,45361,53.0303,0.0005524,15.90107167,298.2926021939347,305.67279843884353,1 45361U 20019B   26201.30939054  .00094028  14333-4  31554-3 0  9997,2 45361  53.0303 162.8830 0005524  64.4306 295.7289 15.90107167351516
STARLINK-1262,45366,53.1526,0.0002699,15.37546112,451.5244574635162,455.21210401405824,1 45366U 20019G   26201.90987657  .00026402  00000+0  71424-3 0  9992,2 45366  53.1526 264.0838 0002699 320.7362  39.3446 15.37546112350189
STARLINK-1273,45367,53.0401,0.0003262,15.63090035,376.5332910831248,380.94147593092475,1 45367U 20019H   26201.35585433  .00052699  00000+0  57002-3 0  9991,2 45367  53.0401 234.4682 0003262   8.5179 351.5889 15.63090035350528
STARLINK-1276,45368,53.0699,5.39e-05,15.16243689,516.8337487754225,517.5770666869757,1 45368U 20019J   26201.48564858  .00012281  00000+0  64221-3 0  9998,2 45368  53.0699 284.1944 0000539  48.8802 311.2238 15.16243689349842
STARLINK-1277,45369,53.0386,0.0003823,15.71358729,352.4387616978147,357.58692806921226,1 45369U 20019K   26201.78059106  .00039082  00000+0  30422-3 0  9991,2 45369  53.0386 223.7601 0003823  37.5094 322.6189 15.71358729350714
STARLINK-1281,45370,53.1553,0.0001965,15.38352788,449.63796343504055,452.3218063708073,1 45370U 20019L   26201.50852569  .00025545  00000+0  67368-3 0  9995,2 45370  53.1553 265.3614 0001965 310.9865  49.0969 15.38352788350132
STARLINK-1300,45374,53.1564,0.0002648,15.39079531,447.02215947105014,450.63772116264226,1 45374U 20019Q   26201.89367398  .00027038  00000+0  69568-3 0  9995,2 45374  53.1564 263.2757 0002648 316.7264  43.3533 15.39079531350192
STARLINK-1302,45375,53.0423,0.0001135,15.71574022,353.6337632172663,355.1620486409129,1 45375U 20019R   26201.74912506  .00036607  00000+0  28284-3 0  9999,2 45375  53.0423 219.7020 0001135  52.1077 308.0043 15.71574022350769
STARLINK-1304,45376,53.0392,0.00018,15.67048688,366.13899443216997,368.56737089793023,1 45376U 20019S   26201.29199765  .00028805  00000+0  26943-3 0  9995,2 45376  53.0392 224.5738 0001800 358.2853   1.8156 15.67048688350656
STARLINK-1305,45377,53.0358,0.0007452,15.77097936,333.6625167147304,343.6732427074512,1 45377U 20019T   26201.69974809  .00056915  00000+0  34320-3 0  9991,2 45377  53.0358 198.2398 0007452  37.9297 322.2246 15.77097936351067
STARLINK-1319,45379,53.0328,0.0004009,15.85590975,311.9780688850451,317.3443544911779,1 45379U 20019V   26201.91609304  .00102919  00000+0  41519-3 0  9997,2 45379  53.0328 186.5792 0004009  53.4378 306.7014 15.85590975351242
STARLINK-1266,45383,53.0424,0.0004883,15.69641057,356.6338509081652,363.2142413258025,1 45383U 20019Z   26201.24032856  .00033597  00000+0  28169-3 0  9991,2 45383  53.0424 209.0172 0004883  31.1573 328.9732 15.69641057350867
STARLINK-1267,45384,53.0416,0.0003089,15.74567515,343.7851060620351,347.9391927365341,1 45384U 20019AA  26201.70263415  .00049244  00000+0  33299-3 0  9996,2 45384  53.0416 197.0402 0003089  53.2831 306.8471 15.74567515351071
STARLINK-1272,45386,53.0371,0.0002993,15.79833064,328.9051909607824,332.92122841630226,1 45386U 20019AC  26201.21802920  .00064887  00000+0  34576-3 0  9993,2 45386  53.0371 176.7644 0002993  72.0490 288.0857 15.79833064351314
STARLINK-1274,45387,53.0159,0.0005547,15.70172508,354.6667954063523,362.14031349746074,1 45387U 20019AD  26201.30618568  .00085253  00000+0  68745-3 0  9992,2 45387  53.0159 178.3592 0005547 354.7930   5.3028 15.70172508351293
STARLINK-1280,45388,53.0292,0.0005563,15.94659296,285.55481535984836,292.9729655905903,1 45388U 20019AE  26202.00002315  .00185346  24426-4  48177-3 0  9992,2 45388  53.0292 176.3705 0005563  61.7739 313.8037 15.94659296  6043
STARLINK-1283,45389,53.0335,0.000451,15.77080204,335.6889251202065,341.7475285348046,1 45389U 20019AF  26201.64202448  .00050760  00000+0  30729-3 0  9993,2 45389  53.0335 174.0343 0004510  32.3514 327.7781 15.77080204351390
STARLINK-1284,45390,53.039,0.0004039,15.7494641,342.06829464001294,347.4990699671771,1 45390U 20019AG  26201.26513514  .00038719  00000+0  25874-3 0  9997,2 45390  53.0390 200.3846 0004039  97.2749 262.8729 15.74946410350982
STARLINK-1297,45395,53.0383,0.0003871,15.78319968,332.6016580676787,337.7991238757695,1 45395U 20019AM  26201.87025574  .00070415  00000+0  40107-3 0  9998,2 45395  53.0383 195.8979 0003871  52.0583 308.0787 15.78319968350288
STARLINK-1307,45397,53.0505,0.0002823,15.59400543,387.4804118403863,391.3013580842362,1 45397U 20019AP  26201.40523998  .00022262  00000+0  28225-3 0  9996,2 45397  53.0505 209.1683 0002823  19.3577 340.7542 15.59400543350700
STARLINK-1255,45399,53.0325,0.0005878,15.6964377,355.95565427315523,363.8769097114646,1 45399U 20019AR  26201.94686253  .00055144  00000+0  45784-3 0  9995,2 45399  53.0325 171.2589 0005878   8.7722 351.3395 15.69643770351261
STARLINK-1260,45404,53.154,0.0001985,15.41704753,439.72413110112757,442.4313593549832,1 45404U 20019AW  26201.46343494  .00023803  00000+0  56318-3 0  9998,2 45404  53.1540 227.3142 0001985 338.8320  21.2603 15.41704753350377
STARLINK-1263,45405,53.154,0.0003673,15.38617934,447.6872533591513,452.70334626659405,1 45405U 20019AX  26201.64596417  .00022626  00000+0  59293-3 0  9991,2 45405  53.1540 228.6206 0003673 337.1945  22.8896 15.38617934350375
STARLINK-1265,45406,53.1526,0.0002902,15.42137333,437.82389552446057,441.7810275879483,1 45406U 20019AY  26201.76882392  .00028514  00000+0  66270-3 0  9990,2 45406  53.1526 225.7350 0002902  10.7577 349.3491 15.42137333350426
STARLINK-1278,45408,53.0357,0.0003105,15.79498918,329.77593067302223,333.94283842782806,1 45408U 20019BA  26201.36054557  .00057678  00000+0  31271-3 0  9998,2 45408  53.0357 197.0292 0003105  57.2102 302.9217 15.79498918350768
STARLINK-1296,45412,53.1531,0.0001935,15.42246501,438.16150992858,440.799927985815,1 45412U 20019BE  26201.34991751  .00028183  00000+0  65281-3 0  9994,2 45412  53.1531 227.3545 0001935 350.6270   9.4699 15.42246501350369
